{
    "links": {
        "self": "http://www.neowsapp.com/rest/v1/neo/54016459?api_key=iIulBulltgU6a56xZRHN4H3l9WmuAYTsLGpBGhQ2"
    },
    "id": "54016459",
    "neo_reference_id": "54016459",
    "name": "(2020 GZ)",
    "designation": "2020 GZ",
    "nasa_jpl_url": "http://ssd.jpl.nasa.gov/sbdb.cgi?sstr=54016459",
    "absolute_magnitude_h": 26.932,
    "estimated_diameter": {
        "kilometers": {
            "estimated_diameter_min": 0.0109182988,
            "estimated_diameter_max": 0.0244140584
        },
        "meters": {
            "estimated_diameter_min": 10.9182988297,
            "estimated_diameter_max": 24.4140583818
        },
        "miles": {
            "estimated_diameter_min": 0.0067843143,
            "estimated_diameter_max": 0.0151701879
        },
        "feet": {
            "estimated_diameter_min": 35.8211915323,
            "estimated_diameter_max": 80.0986193013
        }
    },
    "is_potentially_hazardous_asteroid": false,
    "close_approach_data": [
        {
            "close_approach_date": "2020-03-26",
            "close_approach_date_full": "2020-Mar-26 07:42",
            "epoch_date_close_approach": 1585208520000,
            "relative_velocity": {
                "kilometers_per_second": "16.798351086",
                "kilometers_per_hour": "60474.063909474",
                "miles_per_hour": "37576.2315441951"
            },
            "miss_distance": {
                "astronomical": "0.0106325348",
                "lunar": "4.1360560372",
                "kilometers": "1590604.558780876",
                "miles": "988355.8421570488"
            },
            "orbiting_body": "Earth"
        }
    ],
    "orbital_data": {
        "orbit_id": "1",
        "orbit_determination_date": "2020-04-04 07:12:09",
        "first_observation_date": "2020-04-02",
        "last_observation_date": "2020-04-04",
        "data_arc_in_days": 2,
        "observations_used": 14,
        "orbit_uncertainty": "9",
        "minimum_orbit_intersection": ".00493638",
        "jupiter_tisserand_invariant": "3.849",
        "epoch_osculation": "2458942.5",
        "eccentricity": ".6197113983922542",
        "semi_major_axis": "1.774106556639026",
        "inclination": ".5952281098669818",
        "ascending_node_longitude": "52.80883097166112",
        "orbital_period": "863.1136367114482",
        "perihelion_distance": ".6746725015273884",
        "perihelion_argument": "52.36877873576535",
        "aphelion_distance": "2.873540611750665",
        "perihelion_time": "2458887.085799419034",
        "mean_anomaly": "23.11296144636983",
        "mean_motion": ".4170945570639308",
        "equinox": "J2000",
        "orbit_class": {
            "orbit_class_type": "APO",
            "orbit_class_description": "Near-Earth asteroid orbits which cross the Earth’s orbit similar to that of 1862 Apollo",
            "orbit_class_range": "a (semi-major axis) > 1.0 AU; q (perihelion) < 1.017 AU"
        }
    },
    "is_sentry_object": false
}